[
    {
        "Altitude(m)": 617719.7577812416,
        "Argument of Periapsis(deg)": 0.0,
        "Eccentricity": 0.0,
        "Inclination(deg)": 60.0,
        "Latitude(deg)": -41.10260447386945,
        "Longitude(deg)": 5.094723655687235,
        "Mean Anomaly(deg)": -130.90909999999997,
        "RAAN(deg)": 255.0,
        "Satellite Name": "Test1 1136",
        "Satellite Number": 1136,
        "Semi-Major Axis(m)": 6980739.136638005,
        "Time(s)": 0
    },
    {
        "Altitude(m)": 617911.2933708057,
        "Argument of Periapsis(deg)": 0.00010418945913296404,
        "Eccentricity": 0.0,
        "Inclination(deg)": 60.0,
        "Latitude(deg)": -41.56579567586466,
        "Longitude(deg)": 5.599131184381356,
        "Mean Anomaly(deg)": -130.2889938545381,
        "RAAN(deg)": 254.99957995086027,
        "Satellite Name": "Test1 1136",
        "Satellite Number": 1136,
        "Semi-Major Axis(m)": 6980739.136638005,
        "Time(s)": 10
    }
]